NORAD_CAT_ID,OBJECT_NAME,OBJECT_TYPE,EPOCH,MEAN_MOTION,ECCENTRICITY,INCLINATION,RA_OF_ASC_NODE,ARG_OF_PERICENTER,MEAN_ANOMALY,BSTAR,MEAN_MOTION_DOT,MEAN_MOTION_DDOT,TLE_LINE0,TLE_LINE1,TLE_LINE2,SEMIMAJOR_AXIS,PERIOD,APOGEE,PERIGEE,DECAYED
55936.0,STARLINK-5882,PAYLOAD,2024-06-18 09:16:02,14.98336575,0.0002898,70.0005,50.9941,268.9462,91.1365,-0.00011107,-1.418e-05,0.0,0 STARLINK-5882,1 55936U 23037Y   24170.38614276 -.00001418  00000-0 -11107-3 0  9993,2 55936  70.0005  50.9941 0002898 268.9462  91.1365 14.98336575 70210,6950.173,96.107,574.052,570.023,0.0
55936.0,STARLINK-5882,PAYLOAD,2024-06-18 22:05:06,14.98339843,0.0002658,70.0011,49.648,260.6837,99.4021,-8.2571e-05,-1.078e-05,0.0,0 STARLINK-5882,1 55936U 23037Y   24170.92021689 -.00001078  00000-0 -82571-4 0  9999,2 55936  70.0011  49.6480 0002658 260.6837  99.4021 14.98339843 70636,6950.162,96.106,573.875,570.18,0.0
55936.0,STARLINK-5882,PAYLOAD,2024-06-19 09:18:03,14.98336988,0.000298,70.0002,48.4689,265.7304,94.3514,-0.00016583,-2.071e-05,0.0,0 STARLINK-5882,1 55936U 23037Y   24171.38753825 -.00002071  00000-0 -16583-3 0  9997,2 55936  70.0002  48.4689 0002980 265.7304  94.3514 14.98336988 70365,6950.171,96.107,574.107,569.965,0.0
55936.0,STARLINK-5882,PAYLOAD,2024-06-19 20:30:59,14.98326404,0.0003028,70.0002,47.2903,268.5241,91.5571,1.3617e-05,6.9e-07,0.0,0 STARLINK-5882,1 55936U 23037Y   24171.85486030  .00000069  00000-0  13617-4 0  9999,2 55936  70.0002  47.2903 0003028 268.5241  91.5571 14.98326404 70775,6950.204,96.107,574.174,569.964,0.0
55936.0,STARLINK-5882,PAYLOAD,2024-06-19 22:07:07,14.98331079,0.0003054,70.0002,47.122,267.8523,92.2287,-5.7191e-05,-7.75e-06,0.0,0 STARLINK-5882,1 55936U 23037Y   24171.92161961 -.00000775  00000-0 -57191-4 0  9991,2 55936  70.0002  47.1220 0003054 267.8523  92.2287 14.98331079 70440,6950.19,96.107,574.177,569.932,0.0
55936.0,STARLINK-5882,PAYLOAD,2024-06-20 09:20:04,14.98328309,0.000302,70.0003,45.9434,265.2793,94.8021,-6.0837e-06,-1.66e-06,0.0,0 STARLINK-5882,1 55936U 23037Y   24172.38894006 -.00000166  00000-0 -60837-5 0  9991,2 55936  70.0003  45.9434 0003020 265.2793  94.8021 14.98328309 70512,6950.198,96.107,574.162,569.964,0.0
55936.0,STARLINK-5882,PAYLOAD,2024-06-20 22:09:08,14.98328676,0.0003024,70.0001,44.5963,267.11,92.9713,-2.0672e-05,-3.4e-06,0.0,0 STARLINK-5882,1 55936U 23037Y   24172.92302068 -.00000340  00000-0 -20672-4 0  9999,2 55936  70.0001  44.5963 0003024 267.1100  92.9713 14.98328676 70591,6950.197,96.107,574.164,569.96,0.0
55936.0,STARLINK-5882,PAYLOAD,2024-06-20 23:45:16,14.9832943,0.0003018,70.0001,44.428,267.1664,92.9149,-1.1605e-05,-2.31e-06,0.0,0 STARLINK-5882,1 55936U 23037Y   24172.98977997 -.00000231  00000-0 -11605-4 0  9999,2 55936  70.0001  44.4280 0003018 267.1664  92.9149 14.98329430 70941,6950.195,96.107,574.157,569.962,0.0
55936.0,STARLINK-5882,PAYLOAD,2024-06-21 14:10:29,14.98330321,0.0003056,70.0001,42.9131,267.2979,92.783,6.156e-05,6.42e-06,0.0,0 STARLINK-5882,1 55936U 23037Y   24173.59061723  .00000642  00000-0  61560-4 0  9997,2 55936  70.0001  42.9131 0003056 267.2979  92.7830 14.98330321 70699,6950.192,96.107,574.181,569.933,0.0
55936.0,STARLINK-5882,PAYLOAD,2024-06-21 22:11:09,14.98332011,0.0003115,70.0,42.0717,267.2444,92.8359,2.9146e-05,2.55e-06,0.0,0 STARLINK-5882,1 55936U 23037Y   24173.92441676  .00000255  00000-0  29146-4 0  9997,2 55936  70.0000  42.0717 0003115 267.2444  92.8359 14.98332011 70743,6950.187,96.107,574.217,569.887,0.0
55936.0,STARLINK-5882,PAYLOAD,2024-06-22 01:23:25,14.98334106,0.0003098,70.0,41.735,267.2863,92.7941,5.1381e-05,5.2e-06,0.0,0 STARLINK-5882,1 55936U 23037Y   24174.05793449  .00000520  00000-0  51381-4 0  9991,2 55936  70.0000  41.7350 0003098 267.2863  92.7941 14.98334106 71101,6950.18,96.107,574.198,569.892,0.0
55936.0,STARLINK-5882,PAYLOAD,2024-06-22 14:12:30,14.9833003,0.0003048,70.0,40.3883,267.3905,92.6905,1.7929e-05,1.21e-06,0.0,0 STARLINK-5882,1 55936U 23037Y   24174.59201732  .00000121  00000-0  17929-4 0  9996,2 55936  70.0000  40.3883 0003048 267.3905  92.6905 14.98330030 70841,6950.193,96.107,574.176,569.939,0.0
55936.0,STARLINK-5882,PAYLOAD,2024-06-22 22:13:10,14.98330776,0.000302,70.0002,39.5472,266.4989,93.5825,2.1351e-05,1.62e-06,0.0,0 STARLINK-5882,1 55936U 23037Y   24174.92581643  .00000162  00000-0  21351-4 0  9994,2 55936  70.0002  39.5472 0003020 266.4989  93.5825 14.98330776 70892,6950.19,96.107,574.154,569.957,0.0
55936.0,STARLINK-5882,PAYLOAD,2024-06-23 01:25:26,14.98332097,0.0003016,70.0002,39.2104,266.7277,93.3537,3.4762e-05,3.22e-06,0.0,0 STARLINK-5882,1 55936U 23037Y   24175.05933502  .00000322  00000-0  34762-4 0  9992,2 55936  70.0002  39.2104 0003016 266.7277  93.3537 14.98332097 71256,6950.186,96.107,574.148,569.955,0.0
55936.0,STARLINK-5882,PAYLOAD,2024-06-23 22:15:11,14.98331413,0.0002824,70.0005,37.0223,262.8442,97.2396,-1.0744e-05,-2.21e-06,0.0,0 STARLINK-5882,1 55936U 23037Y   24175.92721560 -.00000221  00000-0 -10744-4 0  9991,2 55936  70.0005  37.0223 0002824 262.8442  97.2396 14.98331413 71048,6950.189,96.107,574.016,570.091,0.0
55936.0,STARLINK-5882,PAYLOAD,2024-06-23 23:51:19,14.98331701,0.0002818,70.0005,36.854,262.7214,97.3625,-7.1414e-06,-1.78e-06,0.0,0 STARLINK-5882,1 55936U 23037Y   24175.99397522 -.00000178  00000-0 -71414-5 0  9998,2 55936  70.0005  36.8540 0002818 262.7214  97.3625 14.98331701 71053,6950.188,96.107,574.011,570.094,0.0
55936.0,STARLINK-5882,PAYLOAD,2024-06-24 20:41:04,14.98328854,0.0002803,70.0005,34.6659,259.356,100.7283,-8.1218e-06,-1.9e-06,0.0,0 STARLINK-5882,1 55936U 23037Y   24176.86185588 -.00000190  00000-0 -81218-5 0  9999,2 55936  70.0005  34.6659 0002803 259.3560 100.7283 14.98328854 71526,6950.196,96.107,574.01,570.113,0.0
55936.0,STARLINK-5882,PAYLOAD,2024-06-24 23:53:20,14.98329415,0.0002788,70.0006,34.3292,259.1204,100.9641,-9.3593e-07,-1.04e-06,0.0,0 STARLINK-5882,1 55936U 23037Y   24176.99537533 -.00000104  00000-0 -93593-6 0  9999,2 55936  70.0006  34.3292 0002788 259.1204 100.9641 14.98329415 71201,6950.195,96.107,573.997,570.122,0.0
55936.0,STARLINK-5882,PAYLOAD,2024-06-25 20:43:05,14.98330009,0.0002789,70.0006,32.1411,256.247,103.8379,-6.7965e-06,-1.74e-06,0.0,0 STARLINK-5882,1 55936U 23037Y   24177.86325482 -.00000174  00000-0 -67965-5 0  9994,2 55936  70.0006  32.1411 0002789 256.2470 103.8379 14.98330009 71676,6950.193,96.107,573.996,570.119,0.0
55936.0,STARLINK-5882,PAYLOAD,2024-06-25 22:19:13,14.98330689,0.0002773,70.0007,31.9729,255.4626,104.6226,1.9526e-06,-7e-07,0.0,0 STARLINK-5882,1 55936U 23037Y   24177.93001407 -.00000070  00000-0  19526-5 0  9994,2 55936  70.0007  31.9729 0002773 255.4626 104.6226 14.98330689 71341,6950.191,96.107,573.983,570.128,0.0
55936.0,STARLINK-5882,PAYLOAD,2024-06-25 23:55:21,14.98331293,0.0002769,70.0007,31.8048,255.1806,104.9046,8.6351e-06,1e-07,0.0,0 STARLINK-5882,1 55936U 23037Y   24177.99677344  .00000010  00000-0  86351-5 0  9992,2 55936  70.0007  31.8048 0002769 255.1806 104.9046 14.98331293 71352,6950.189,96.107,573.978,570.129,0.0
55936.0,STARLINK-5882,PAYLOAD,2024-06-26 22:21:14,14.98327693,0.0002728,70.001,29.4486,253.8675,106.2184,-5.2663e-06,-1.56e-06,0.0,0 STARLINK-5882,1 55936U 23037Y   24178.93141616 -.00000156  00000-0 -52663-5 0  9997,2 55936  70.0010  29.4486 0002728 253.8675 106.2184 14.98327693 71491,6950.2,96.107,573.961,570.169,0.0
55936.0,STARLINK-5882,PAYLOAD,2024-06-26 23:57:22,14.98327571,0.0002745,70.0008,29.28,255.6444,104.441,-8.2288e-06,-1.91e-06,0.0,0 STARLINK-5882,1 55936U 23037Y   24178.99817642 -.00000191  00000-0 -82288-5 0  9997,2 55936  70.0008  29.2800 0002745 255.6444 104.4410 14.98327571 71845,6950.2,96.107,573.973,570.158,0.0
55936.0,STARLINK-5882,PAYLOAD,2024-06-27 22:23:15,14.98331322,0.0003061,69.9998,26.9212,267.974,92.1069,-1.1384e-05,-2.29e-06,0.0,0 STARLINK-5882,1 55936U 23037Y   24179.93281475 -.00000229  00000-0 -11384-4 0  9991,2 55936  69.9998  26.9212 0003061 267.9740  92.1069 14.98331322 71648,6950.189,96.107,574.181,569.926,0.0
55936.0,STARLINK-5882,PAYLOAD,2024-06-27 23:59:23,14.98332203,0.0003069,69.9999,26.7529,268.1445,91.9363,-2.1609e-06,-1.19e-06,0.0,0 STARLINK-5882,1 55936U 23037Y   24179.99957388 -.00000119  00000-0 -21609-5 0  9990,2 55936  69.9999  26.7529 0003069 268.1445  91.9363 14.98332203 71992,6950.186,96.107,574.184,569.918,0.0
55936.0,STARLINK-5882,PAYLOAD,2024-06-28 14:24:35,14.98333209,0.0003058,70.0,25.2388,272.1348,87.9461,5.6214e-05,5.78e-06,0.0,0 STARLINK-5882,1 55936U 23037Y   24180.60041125  .00000578  00000-0  56214-4 0  9999,2 55936  70.0000  25.2388 0003058 272.1348  87.9461 14.98333209 71744,6950.183,96.107,574.173,569.923,0.0
55936.0,STARLINK-5882,PAYLOAD,2024-06-28 22:25:15,14.98340514,0.0002942,70.0,24.3967,272.503,87.5792,0.00012325,1.378e-05,0.0,0 STARLINK-5882,1 55936U 23037Y   24180.93420371  .00001378  00000-0  12325-3 0  9992,2 55936  70.0000  24.3967 0002942 272.5030  87.5792 14.98340514 71795,6950.16,96.106,574.07,569.981,0.0
55936.0,STARLINK-5882,PAYLOAD,2024-06-29 00:01:23,14.98341792,0.0002949,70.0001,24.2285,272.737,87.3451,0.00013662,1.538e-05,0.0,0 STARLINK-5882,1 55936U 23037Y   24181.00096211  .00001538  00000-0  13662-3 0  9996,2 55936  70.0001  24.2285 0002949 272.7370  87.3451 14.98341792 72143,6950.156,96.106,574.071,569.972,0.0
55936.0,STARLINK-5882,PAYLOAD,2024-06-29 12:50:28,14.98324544,0.0002627,70.0018,22.8842,269.2732,90.8126,3.3792e-05,3.1e-06,0.0,0 STARLINK-5882,1 55936U 23037Y   24181.53505592  .00000310  00000-0  33792-4 0  9995,2 55936  70.0018  22.8842 0002627 269.2732  90.8126 14.98324544 72223,6950.21,96.107,573.901,570.249,0.0
55936.0,STARLINK-5882,PAYLOAD,2024-06-29 14:26:37,14.98325777,0.0002396,70.0,22.7138,272.6111,87.4774,-3.3396e-05,-4.91e-06,0.0,0 STARLINK-5882,1 55936U 23037Y   24181.60181787 -.00000491  00000-0 -33396-4 0  9991,2 55936  70.0000  22.7138 0002396 272.6111  87.4774 14.98325777 71895,6950.206,96.107,573.736,570.406,0.0
